NORAD_CAT_ID,OBJECT_NAME,OBJECT_TYPE,EPOCH,MEAN_MOTION,ECCENTRICITY,INCLINATION,RA_OF_ASC_NODE,ARG_OF_PERICENTER,MEAN_ANOMALY,BSTAR,MEAN_MOTION_DOT,MEAN_MOTION_DDOT,TLE_LINE0,TLE_LINE1,TLE_LINE2,SEMIMAJOR_AXIS,PERIOD,APOGEE,PERIGEE,DECAYED
53859.0,STARLINK-4790,PAYLOAD,2024-06-29 04:27:51,15.08840204,0.0001284,53.2154,185.3482,91.0585,269.0555,8.6859e-05,1.095e-05,0.0,0 STARLINK-4790,1 53859U 22114AT  24181.18601375  .00001095  00000-0  86859-4 0  9992,2 53859  53.2154 185.3482 0001284  91.0585 269.0555 15.08840204 99132,6917.88,95.438,540.633,538.857,0.0
53859.0,STARLINK-4790,PAYLOAD,2024-06-29 09:14:00,15.08841533,0.0001268,53.2152,184.4559,89.885,270.2287,9.4391e-05,1.215e-05,0.0,0 STARLINK-4790,1 53859U 22114AT  24181.38473299  .00001215  00000-0  94391-4 0  9990,2 53859  53.2152 184.4559 0001268  89.8850 270.2287 15.08841533 99702,6917.876,95.437,540.618,538.864,0.0
53859.0,STARLINK-4790,PAYLOAD,2024-06-29 17:10:56,15.08841888,0.0001272,53.2152,182.969,89.4312,270.6826,8.1449e-05,1.009e-05,0.0,0 STARLINK-4790,1 53859U 22114AT  24181.71593324  .00001009  00000-0  81449-4 0  9990,2 53859  53.2152 182.9690 0001272  89.4312 270.6826 15.08841888 99756,6917.875,95.437,540.62,538.86,0.0
53859.0,STARLINK-4790,PAYLOAD,2024-06-30 04:18:39,15.08829483,0.0001312,53.2151,180.8874,87.5654,272.5488,9.7823e-07,-2.72e-06,0.0,0 STARLINK-4790,1 53859U 22114AT  24182.17962489 -.00000272  00000-0  97823-6 0  9990,2 53859  53.2151 180.8874 0001312  87.5654 272.5488 15.08829483 99289,6917.913,95.438,540.685,538.87,0.0
53859.0,STARLINK-4790,PAYLOAD,2024-06-30 09:04:48,15.08833718,0.0001368,53.2151,179.9941,82.7752,277.3396,-5.8841e-06,-3.82e-06,0.0,0 STARLINK-4790,1 53859U 22114AT  24182.37834333 -.00000382  00000-0 -58841-5 0  9997,2 53859  53.2151 179.9941 0001368  82.7752 277.3396 15.08833718 99850,6917.9,95.438,540.711,538.818,0.0
53859.0,STARLINK-4790,PAYLOAD,2024-06-30 17:01:44,15.08823308,0.00014,53.2152,178.5098,94.936,265.1792,0.00023199,3.404e-05,0.0,0 STARLINK-4790,1 53859U 22114AT  24182.70954507  .00003404  00000-0  23199-3 0  9992,2 53859  53.2152 178.5098 0001400  94.9360 265.1792 15.08823308 99901,6917.931,95.439,540.765,538.828,0.0
53859.0,STARLINK-4790,PAYLOAD,2024-07-01 05:44:48,15.08843516,0.0001328,53.2153,176.1307,88.3834,271.731,4.8825e-05,4.89e-06,0.0,0 STARLINK-4790,1 53859U 22114AT  24183.23945595  .00000489  00000-0  48825-4 0  9992,2 53859  53.2153 176.1307 0001328  88.3834 271.7310 15.08843516 99442,6917.87,95.437,540.653,538.816,0.0
53859.0,STARLINK-4790,PAYLOAD,2024-07-01 07:20:12,15.08844072,0.0001335,53.2154,175.8333,88.3863,271.7282,5.3128e-05,5.58e-06,0.0,0 STARLINK-4790,1 53859U 22114AT  24183.30569537  .00000558  00000-0  53128-4 0  9997,2 53859  53.2154 175.8333 0001335  88.3863 271.7282 15.08844072 99994,6917.868,95.437,540.656,538.809,0.0
53859.0,STARLINK-4790,PAYLOAD,2024-07-01 20:03:19,15.08732602,0.0001402,53.2155,173.4532,125.5313,234.5809,0.0016081,0.00025322,0.0,0 STARLINK-4790,1 53859U 22114AT  24183.83564761  .00025322  00000-0  16081-2 0  9990,2 53859  53.2155 173.4532 0001402 125.5313 234.5809 15.08732602 99536,6918.209,95.444,541.044,539.104,0.0
53859.0,STARLINK-4790,PAYLOAD,2024-07-02 05:35:36,15.08835177,0.000131,53.2155,171.6681,92.2118,267.9024,8.6103e-05,1.083e-05,0.0,0 STARLINK-4790,1 53859U 22114AT  24184.23305873  .00001083  00000-0  86103-4 0  9994,2 53859  53.2155 171.6681 0001310  92.2118 267.9024 15.08835177 99598,6917.895,95.438,540.666,538.854,0.0
53859.0,STARLINK-4790,PAYLOAD,2024-07-02 08:46:22,15.08839294,0.0001331,53.2155,171.0731,91.7837,268.3307,8.8567e-05,1.122e-05,0.0,0 STARLINK-4790,1 53859U 22114AT  24184.36553626  .00001122  00000-0  88567-4 0  9999,2 53859  53.2155 171.0731 0001331  91.7837 268.3307 15.08839294100151,6917.883,95.438,540.668,538.827,0.0
53859.0,STARLINK-4790,PAYLOAD,2024-07-02 16:43:17,15.08841737,0.0001335,53.2155,169.5866,90.9101,269.2045,8.4858e-05,1.063e-05,0.0,0 STARLINK-4790,1 53859U 22114AT  24184.69673442  .00001063  00000-0  84858-4 0  9997,2 53859  53.2155 169.5866 0001335  90.9101 269.2045 15.08841737100201,6917.875,95.437,540.664,538.817,0.0
53859.0,STARLINK-4790,PAYLOAD,2024-07-03 08:37:09,15.08836581,0.0001321,53.2161,166.6129,91.4291,268.6853,-5.0779e-05,-1.096e-05,0.0,0 STARLINK-4790,1 53859U 22114AT  24185.35914216 -.00001096  00000-0 -50779-4 0  9991,2 53859  53.2161 166.6129 0001321  91.4291 268.6853 15.08836581 99768,6917.891,95.438,540.67,538.842,0.0
53859.0,STARLINK-4790,PAYLOAD,2024-07-04 05:17:10,15.08837868,0.000132,53.2164,162.747,91.6593,268.455,2.6973e-05,1.41e-06,0.0,0 STARLINK-4790,1 53859U 22114AT  24186.22025917  .00000141  00000-0  26973-4 0  9996,2 53859  53.2164 162.7470 0001320  91.6593 268.4550 15.08837868100431,6917.887,95.438,540.665,538.839,0.0
53859.0,STARLINK-4790,PAYLOAD,2024-07-04 22:46:24,15.08834588,0.0001159,53.2154,159.4768,92.7139,267.3986,8.8003e-05,1.113e-05,0.0,0 STARLINK-4790,1 53859U 22114AT  24186.94889978  .00001113  00000-0  88003-4 0  9992,2 53859  53.2154 159.4768 0001159  92.7139 267.3986 15.08834588100540,6917.897,95.438,540.564,538.96,0.0
53859.0,STARLINK-4790,PAYLOAD,2024-07-05 05:07:57,15.08833146,0.0001127,53.2153,158.287,92.5315,267.5806,7.419e-05,8.93e-06,0.0,0 STARLINK-4790,1 53859U 22114AT  24187.21386229  .00000893  00000-0  74190-4 0  9990,2 53859  53.2153 158.2870 0001127  92.5315 267.5806 15.08833146100046,6917.901,95.438,540.546,538.987,0.0
53859.0,STARLINK-4790,PAYLOAD,2024-07-05 21:01:48,15.08837982,0.000142,53.2173,155.3177,107.2007,252.9141,7.5104e-05,9.07e-06,0.0,0 STARLINK-4790,1 53859U 22114AT  24187.87626050  .00000907  00000-0  75104-4 0  9993,2 53859  53.2173 155.3177 0001420 107.2007 252.9141 15.08837982100686,6917.887,95.438,540.734,538.769,0.0
53859.0,STARLINK-4790,PAYLOAD,2024-07-06 04:58:45,15.08830869,0.0001363,53.2171,153.8296,102.9298,257.1846,-2.9284e-05,-7.54e-06,0.0,0 STARLINK-4790,1 53859U 22114AT  24188.20746954 -.00000754  00000-0 -29284-4 0  9997,2 53859  53.2171 153.8296 0001363 102.9298 257.1846 15.08830869100731,6917.908,95.438,540.716,538.83,0.0
53859.0,STARLINK-4790,PAYLOAD,2024-07-06 14:31:03,15.08841261,0.0001277,53.2166,152.0431,91.5235,268.5903,4.3742e-05,4.08e-06,0.0,0 STARLINK-4790,1 53859U 22114AT  24188.60490075  .00000408  00000-0  43742-4 0  9990,2 53859  53.2166 152.0431 0001277  91.5235 268.5903 15.08841261100250,6917.877,95.437,540.625,538.858,0.0
53859.0,STARLINK-4790,PAYLOAD,2024-07-07 04:49:32,15.08830985,0.0001473,53.2181,149.3692,95.3958,264.7202,1.3503e-05,-7.3e-07,0.0,0 STARLINK-4790,1 53859U 22114AT  24189.20107149 -.00000073  00000-0  13503-4 0  9995,2 53859  53.2181 149.3692 0001473  95.3958 264.7202 15.08830985100348,6917.908,95.438,540.792,538.754,0.0
53859.0,STARLINK-4790,PAYLOAD,2024-07-07 06:24:55,15.08832227,0.0001528,53.2179,149.0717,98.0864,262.0302,-2.5439e-06,-3.28e-06,0.0,0 STARLINK-4790,1 53859U 22114AT  24189.26731149 -.00000328  00000-0 -25439-5 0  9990,2 53859  53.2179 149.0717 0001528  98.0864 262.0302 15.08832227100890,6917.904,95.438,540.826,538.712,0.0
53859.0,STARLINK-4790,PAYLOAD,2024-07-08 06:15:42,15.08842366,0.0001507,53.2174,144.6089,86.0384,274.0781,8.3007e-05,1.033e-05,0.0,0 STARLINK-4790,1 53859U 22114AT  24190.26090358  .00001033  00000-0  83007-4 0  9998,2 53859  53.2174 144.6089 0001507  86.0384 274.0781 15.08842366100506,6917.873,95.437,540.781,538.696,0.0
53859.0,STARLINK-4790,PAYLOAD,2024-07-08 20:34:10,15.08837318,0.0001387,53.2161,141.9334,87.4239,272.6912,0.00011129,1.484e-05,0.0,0 STARLINK-4790,1 53859U 22114AT  24190.85706547  .00001484  00000-0  11129-3 0  9992,2 53859  53.2161 141.9334 0001387  87.4239 272.6912 15.08837318101136,6917.889,95.438,540.713,538.794,0.0
53859.0,STARLINK-4790,PAYLOAD,2024-07-09 14:03:24,15.08846059,0.0001259,53.216,138.6611,96.7357,263.3778,8.4172e-05,1.052e-05,0.0,0 STARLINK-4790,1 53859U 22114AT  24191.58570026  .00001052  00000-0  84172-4 0  9994,2 53859  53.2160 138.6611 0001259  96.7357 263.3778 15.08846059101249,6917.862,95.437,540.598,538.856,0.0
53859.0,STARLINK-4790,PAYLOAD,2024-07-10 04:21:53,15.08837604,0.0001328,53.2159,135.9846,97.5295,262.5848,-4.3846e-05,-9.86e-06,0.0,0 STARLINK-4790,1 53859U 22114AT  24192.18187045 -.00000986  00000-0 -43846-4 0  9996,2 53859  53.2159 135.9846 0001328  97.5295 262.5848 15.08837604100798,6917.888,95.438,540.671,538.834,0.0
53859.0,STARLINK-4790,PAYLOAD,2024-07-10 13:54:12,15.08839693,0.0001378,53.2164,134.2002,98.6567,261.4581,2.1841e-05,6e-07,0.0,0 STARLINK-4790,1 53859U 22114AT  24192.57930728  .00000060  00000-0  21841-4 0  9995,2 53859  53.2164 134.2002 0001378  98.6567 261.4581 15.08839693101398,6917.881,95.438,540.7,538.793,0.0
53859.0,STARLINK-4790,PAYLOAD,2024-07-11 05:48:03,15.08841753,0.000148,53.2169,131.2266,102.8883,257.2275,8.5738e-05,1.077e-05,0.0,0 STARLINK-4790,1 53859U 22114AT  24193.24170448  .00001077  00000-0  85738-4 0  9999,2 53859  53.2169 131.2266 0001480 102.8883 257.2275 15.08841753101499,6917.875,95.437,540.764,538.716,0.0
53859.0,STARLINK-4790,PAYLOAD,2024-07-12 04:03:27,15.088376,0.0001272,53.2162,127.0622,98.0685,262.0451,4.4491e-05,4.2e-06,0.0,0 STARLINK-4790,1 53859U 22114AT  24194.16906922  .00000420  00000-0  44491-4 0  9997,2 53859  53.2162 127.0622 0001272  98.0685 262.0451 15.08837600101098,6917.888,95.438,540.633,538.873,0.0
53859.0,STARLINK-4790,PAYLOAD,2024-07-12 12:00:22,15.08846687,0.0001289,53.2163,125.5771,99.2726,260.8412,0.00011076,1.476e-05,0.0,0 STARLINK-4790,1 53859U 22114AT  24194.50026128  .00001476  00000-0  11076-3 0  9990,2 53859  53.2163 125.5771 0001289  99.2726 260.8412 15.08846687101148,6917.86,95.437,540.617,538.833,0.0
53859.0,STARLINK-4790,PAYLOAD,2024-07-12 19:57:19,15.08835641,0.0001783,53.2159,124.0937,96.2965,263.823,5.3979e-05,5.71e-06,0.0,0 STARLINK-4790,1 53859U 22114AT  24194.83147133  .00000571  00000-0  53979-4 0  9990,2 53859  53.2159 124.0937 0001783  96.2965 263.8230 15.08835641101196,6917.894,95.438,540.992,538.525,0.0
